{
  "type": "FeatureCollection",
  "features": [
    {
      "type": "Feature",
      "geometry": {
        "type": "LineString",
        "coordinates": [
          [
            -1.2252717185765505,
            51.71211624518037
          ],
          [
            -1.2253469042479992,
            51.712250439450145
          ],
          [
            -1.22548034414649,
            51.712385807186365
          ],
          [
            -1.2256849464029074,
            51.71250717714429
          ],
          [
            -1.2259150296449661,
            51.712566101923585
          ],
          [
            -1.2261646427214146,
            51.71258655376732
          ],
          [
            -1.2264018505811691,
            51.71256300061941
          ],
          [
            -1.2265758588910103,
            51.71247540973127
          ],
          [
            -1.2267431616783142,
            51.71236468479037
          ],
          [
            -1.2269092071801424,
            51.7122492659837
          ],
          [
            -1.2271301541477442,
            51.71228136867285
          ],
          [
            -1.2273391988128424,
            51.712415060028434
          ],
          [
            -1.2275040708482265,
            51.71253131702542
          ],
          [
            -1.227671541273594,
            51.71265788376331
          ],
          [
            -1.2278364971280098,
            51.712789395824075
          ],
          [
            -1.2279908917844296,
            51.71292752958834
          ],
          [
            -1.228130031377077,
            51.71306440606713
          ],
          [
            -1.2282674945890903,
            51.71320195309818
          ],
          [
            -1.2283940613269806,
            51.7133423499763
          ],
          [
            -1.228527333587408,
            51.713480316102505
          ],
          [
            -1.2286548223346472,
            51.71361543238163
          ],
          [
            -1.2287804670631886,
            51.713749039918184
          ],
          [
            -1.2289039324969053,
            51.71388432383537
          ],
          [
            -1.2290070299059153,
            51.71403268352151
          ],
          [
            -1.2291017454117537,
            51.71417995356023
          ],
          [
            -1.2291778530925512,
            51.71432948671281
          ],
          [
            -1.2292385380715132,
            51.71447918750346
          ],
          [
            -1.2292858958244324,
            51.71462167985737
          ],
          [
            -1.2293111253529787,
            51.714757634326816
          ],
          [
            -1.2293353490531445,
            51.71493415720761
          ],
          [
            -1.2293433118611574,
            51.715101543813944
          ],
          [
            -1.2293337564915419,
            51.71527622267604
          ],
          [
            -1.2292984686791897,
            51.71545023098588
          ],
          [
            -1.2292556371539831,
            51.7156252451241
          ],
          [
            -1.2291988916695118,
            51.71579615212977
          ],
          [
            -1.2291312497109175,
            51.71596638858318
          ],
          [
            -1.2290538847446442,
            51.71613268554211
          ],
          [
            -1.228974089026451,
            51.71629051677883
          ],
          [
            -1.2288814689964056,
            51.716456562280655
          ],
          [
            -1.2287941295653582,
            51.71661674045026
          ],
          [
            -1.2287047784775496,
            51.716773230582476
          ],
          [
            -1.228614505380392,
            51.71693013980985
          ],
          [
            -1.2285248190164566,
            51.71708604320884
          ],
          [
            -1.2284368090331554,
            51.71724404208362
          ],
          [
            -1.2283457815647125,
            51.71740656718612
          ],
          [
            -1.2282535806298256,
            51.71756758354604
          ],
          [
            -1.228176299482584,
            51.71772533096373
          ],
          [
            -1.2280711065977812,
            51.71787478029728
          ],
          [
            -1.2279655784368515,
            51.71802146360278
          ],
          [
            -1.2278538476675749,
            51.718161944299936
          ],
          [
            -1.227714791893959,
            51.718301586806774
          ],
          [
            -1.2275785859674215,
            51.71844047494233
          ],
          [
            -1.2274316512048244,
            51.7185905110091
          ],
          [
            -1.2272883206605911,
            51.71873593702912
          ],
          [
            -1.2271508574485779,
            51.71887750737369
          ],
          [
            -1.227022111415863,
            51.71901882626116
          ],
          [
            -1.2268723268061876,
            51.719156205654144
          ],
          [
            -1.2267010007053614,
            51.71927908435464
          ],
          [
            -1.2265186943113804,
            51.71938570216298
          ],
          [
            -1.2263285927474499,
            51.71950832940638
          ],
          [
            -1.2261737789958715,
            51.71964604407549
          ],
          [
            -1.2260388303548098,
            51.719761043787
          ],
          [
            -1.2258890457451344,
            51.71988836489618
          ],
          [
            -1.2257281132042408,
            51.72002180479467
          ],
          [
            -1.2255730479955673,
            51.72014920972288
          ],
          [
            -1.2254236824810505,
            51.72026957385242
          ],
          [
            -1.2252860516309738,
            51.72037476673722
          ],
          [
            -1.225410271435976,
            51.720494125038385
          ],
          [
            -1.2256642431020737,
            51.72050477005541
          ],
          [
            -1.2259213160723448,
            51.72050166875124
          ],
          [
            -1.2261758744716644,
            51.720477025955915
          ],
          [
            -1.2263761181384325,
            51.72054475173354
          ],
          [
            -1.2264437600970268,
            51.72068732790649
          ],
          [
            -1.2265366315841675,
            51.720841554924846
          ],
          [
            -1.2266730051487684,
            51.720997458323836
          ],
          [
            -1.2268169224262238,
            51.721101980656385
          ],
          [
            -1.227033007889986,
            51.72121656127274
          ],
          [
            -1.2272298987954855,
            51.721327202394605
          ],
          [
            -1.2274345848709345,
            51.72142434865236
          ],
          [
            -1.2276413664221764,
            51.721535325050354
          ],
          [
            -1.2278496567159891,
            51.72164613381028
          ],
          [
            -1.2280583661049604,
            51.721753254532814
          ],
          [
            -1.2282591965049505,
            51.72185911796987
          ],
          [
            -1.228449884802103,
            51.7219664901495
          ],
          [
            -1.2286670599132776,
            51.72205206938088
          ],
          [
            -1.2289141584187746,
            51.722012339159846
          ],
          [
            -1.2291436549276114,
            51.72195869497955
          ],
          [
            -1.2293829582631588,
            51.72191762365401
          ],
          [
            -1.2295586429536343,
            51.72201510518789
          ],
          [
            -1.2297344952821732,
            51.7221047077328
          ],
          [
            -1.2299874611198902,
            51.72212599776685
          ],
          [
            -1.2301799096167088,
            51.72204972244799
          ],
          [
            -1.2304032035171986,
            51.72203639522195
          ],
          [
            -1.2306371424347162,
            51.72203740105033
          ],
          [
            -1.2308817263692617,
            51.72200320288539
          ],
          [
            -1.2311260588467121,
            51.721949726343155
          ],
          [
            -1.2313663680106401,
            51.72190999612212
          ],
          [
            -1.2315558828413486,
            51.72184059396386
          ],
          [
            -1.231339043006301,
            51.7219146899879
          ],
          [
            -1.231103427708149,
            51.72198417596519
          ],
          [
            -1.230886336416006,
            51.72202658839524
          ],
          [
            -1.2306710053235292,
            51.72207201831043
          ],
          [
            -1.2304348032921553,
            51.72205173410475
          ],
          [
            -1.2302079051733017,
            51.722064977511764
          ],
          [
            -1.230000788345933,
            51.72214988619089
          ],
          [
            -1.229781685397029,
            51.72214192338288
          ],
          [
            -1.229589320719242,
            51.72207159921527
          ],
          [
            -1.2294191680848598,
            51.72198174521327
          ],
          [
            -1.2291851453483105,
            51.721993731334805
          ],
          [
            -1.2289436627179384,
            51.72204963862896
          ],
          [
            -1.228745011612773,
            51.72211593948305
          ],
          [
            -1.2285321112722158,
            51.72206958755851
          ],
          [
            -1.228350643068552,
            51.7219596169889
          ],
          [
            -1.2281400058418512,
            51.72182776965201
          ],
          [
            -1.2279367446899414,
            51.72172668389976
          ],
          [
            -1.2277309689670801,
            51.721621910110116
          ],
          [
            -1.2275317311286926,
            51.7215174715966
          ],
          [
            -1.2273548729717731,
            51.721429796889424
          ],
          [
            -1.2271455768495798,
            51.72131119295955
          ],
          [
            -1.2269443273544312,
            51.721198707818985
          ],
          [
            -1.2267808802425861,
            51.721107847988605
          ],
          [
            -1.2266340292990208,
            51.72099829651415
          ],
          [
            -1.2265304289758205,
            51.72087407670915
          ],
          [
            -1.226455494761467,
            51.72073761932552
          ],
          [
            -1.2263618689030409,
            51.720574172213674
          ],
          [
            -1.2261546682566404,
            51.72051667235792
          ],
          [
            -1.2258958350867033,
            51.720533687621355
          ],
          [
            -1.2256392650306225,
            51.720542488619685
          ],
          [
            -1.2254015542566776,
            51.72052698209882
          ],
          [
            -1.2251780088990927,
            51.72050795517862
          ],
          [
            -1.225235341116786,
            51.7203517165035
          ],
          [
            -1.2254178151488304,
            51.72021592967212
          ],
          [
            -1.225598445162177,
            51.72007511369884
          ],
          [
            -1.2257602158933878,
            51.71992985531688
          ],
          [
            -1.2258783169090748,
            51.71981552615762
          ],
          [
            -1.2260491400957108,
            51.71967311762273
          ],
          [
            -1.2261802330613136,
            51.71956004574895
          ],
          [
            -1.226348290219903,
            51.71942668966949
          ],
          [
            -1.226537050679326,
            51.719308672472835
          ],
          [
            -1.2267057783901691,
            51.719210017472506
          ],
          [
            -1.2268555629998446,
            51.71908797696233
          ],
          [
            -1.2269967142492533,
            51.71894213184714
          ],
          [
            -1.2271532882004976,
            51.718784887343645
          ],
          [
            -1.2273152265697718,
            51.71862713992596
          ],
          [
            -1.2274619098752737,
            51.718481462448835
          ],
          [
            -1.2275797594338655,
            51.71835841611028
          ],
          [
            -1.2276902329176664,
            51.7182347830385
          ],
          [
            -1.2278094235807657,
            51.718107126653194
          ],
          [
            -1.2279079109430313,
            51.7179755307734
          ],
          [
            -1.2279913946986198,
            51.717839827761054
          ],
          [
            -1.2280596233904362,
            51.717707393690944
          ],
          [
            -1.2281461246311665,
            51.7175817489624
          ],
          [
            -1.2282162811607122,
            51.717450404539704
          ],
          [
            -1.2283056322485209,
            51.71729927882552
          ],
          [
            -1.2283841706812382,
            51.717159636318684
          ],
          [
            -1.2284569256007671,
            51.717022843658924
          ],
          [
            -1.2285414151847363,
            51.71685453504324
          ],
          [
            -1.228656331077218,
            51.71667080372572
          ],
          [
            -1.2287412397563457,
            51.7165388725698
          ],
          [
            -1.2288206163793802,
            51.716397888958454
          ],
          [
            -1.2288973946124315,
            51.71624911017716
          ],
          [
            -1.2289751786738634,
            51.71610879711807
          ],
          [
            -1.2290455866605043,
            51.71596177853644
          ],
          [
            -1.2291118875145912,
            51.715815262869
          ],
          [
            -1.2291827984154224,
            51.71567050740123
          ],
          [
            -1.2292248755693436,
            51.715526757761836
          ],
          [
            -1.2292594090104103,
            51.715383511036634
          ],
          [
            -1.2292751669883728,
            51.71524194069207
          ],
          [
            -1.2292808666825294,
            51.71509291045368
          ],
          [
            -1.2292763404548168,
            51.71493566595018
          ],
          [
            -1.229251278564334,
            51.71478328295052
          ],
          [
            -1.2292128056287766,
            51.71462897211313
          ],
          [
            -1.229162598028779,
            51.71447055414319
          ],
          [
            -1.2291035056114197,
            51.71431615948677
          ],
          [
            -1.2290237098932266,
            51.71416335739195
          ],
          [
            -1.228933772072196,
            51.7140123154968
          ],
          [
            -1.2288383021950722,
            51.71387527137995
          ],
          [
            -1.2287260685116053,
            51.71374191530049
          ],
          [
            -1.2286123260855675,
            51.71361383982003
          ],
          [
            -1.228506462648511,
            51.71349230222404
          ],
          [
            -1.2283970788121223,
            51.71337394975126
          ],
          [
            -1.2282314524054527,
            51.71320455148816
          ],
          [
            -1.2280757166445255,
            51.71304135583341
          ],
          [
            -1.2279178854078054,
            51.7128830216825
          ],
          [
            -1.2277468107640743,
            51.71273407526314
          ],
          [
            -1.2275676056742668,
            51.71258923597634
          ],
          [
            -1.22739527374506,
            51.71246124431491
          ],
          [
            -1.2272206787019968,
            51.71235420741141
          ],
          [
            -1.2269852310419083,
            51.71227265149355
          ],
          [
            -1.2267630267888308,
            51.71235823072493
          ],
          [
            -1.2266093026846647,
            51.71246090903878
          ],
          [
            -1.2264382280409336,
            51.71256325207651
          ],
          [
            -1.2261899560689926,
            51.71260071918368
          ],
          [
            -1.2259281054139137,
            51.71257674694061
          ],
          [
            -1.2256981898099184,
            51.7125185765326
          ],
          [
            -1.2255070824176073,
            51.7124065104872
          ],
          [
            -1.2253664340823889,
            51.71227223239839
          ],
          [
            -1.225171722471714,
            51.712163938209414
          ],
          [
            -1.2253136280924082,
            51.71210702508688
          ]
        ]
      },
      "properties": {
        "name": "2026-10-03 (Sat) 09:06",
        "source_file": "2026-10-03-080622-ELEMNT_ROAM_A125-30-0.fit",
        "date": "2026-10-03T08:06:22",
        "sport": "cycling",
        "dropbox_id": "id:JY-PzzIM9pcAAAAAAAABRg"
      }
    },
    {
      "type": "Feature",
      "geometry": {
        "type": "LineString",
        "coordinates": [
          [
            -1.2291930243372917,
            51.71436921693385
          ],
          [
            -1.2292574811726809,
            51.714535765349865
          ],
          [
            -1.2293032463639975,
            51.71471421606839
          ],
          [
            -1.2293247878551483,
            51.71485268510878
          ],
          [
            -1.2293315771967173,
            51.71503356657922
          ],
          [
            -1.2293313257396221,
            51.71517429873347
          ],
          [
            -1.229313388466835,
            51.71531377360225
          ],
          [
            -1.2292861472815275,
            51.7154542542994
          ],
          [
            -1.229249518364668,
            51.715596579015255
          ],
          [
            -1.229200903326273,
            51.71574351377785
          ],
          [
            -1.2291497737169266,
            51.7158808093518
          ],
          [
            -1.229092525318265,
            51.71601525507867
          ],
          [
            -1.229026224464178,
            51.71614651568234
          ],
          [
            -1.2289571575820446,
            51.716281631961465
          ],
          [
            -1.2288820557296276,
            51.71641574241221
          ],
          [
            -1.2288081273436546,
            51.716549349948764
          ],
          [
            -1.2287325225770473,
            51.71668463386595
          ],
          [
            -1.2286561634391546,
            51.71682042069733
          ],
          [
            -1.2285805586725473,
            51.71695662662387
          ],
          [
            -1.2284944765269756,
            51.717096185311675
          ],
          [
            -1.22841602191329,
            51.71723281033337
          ],
          [
            -1.2283289339393377,
            51.71737245284021
          ],
          [
            -1.228254335001111,
            51.71751134097576
          ],
          [
            -1.228182502090931,
            51.71765157021582
          ],
          [
            -1.2281112559139729,
            51.717788614332676
          ],
          [
            -1.227987539023161,
            51.71794820576906
          ],
          [
            -1.2278674263507128,
            51.71810444444418
          ],
          [
            -1.227727448567748,
            51.718255737796426
          ],
          [
            -1.2275764904916286,
            51.718404265120625
          ],
          [
            -1.2274541147053242,
            51.71852563507855
          ],
          [
            -1.2273306492716074,
            51.71864683739841
          ],
          [
            -1.227206764742732,
            51.71877642162144
          ],
          [
            -1.2270889151841402,
            51.718898797407746
          ],
          [
            -1.2269804533571005,
            51.719020837917924
          ],
          [
            -1.226855143904686,
            51.71913642436266
          ],
          [
            -1.2267132382839918,
            51.719243712723255
          ],
          [
            -1.2265233043581247,
            51.71936642378569
          ],
          [
            -1.226358013227582,
            51.7194674257189
          ],
          [
            -1.2261991761624813,
            51.71959608793259
          ],
          [
            -1.2260669935494661,
            51.71970798633993
          ],
          [
            -1.2259283568710089,
            51.719829523935914
          ],
          [
            -1.2257752195000648,
            51.719956677407026
          ],
          [
            -1.2256121076643467,
            51.72009330242872
          ],
          [
            -1.2254564557224512,
            51.720218025147915
          ],
          [
            -1.225312203168869,
            51.720329923555255
          ],
          [
            -1.2253429647535086,
            51.720472164452076
          ],
          [
            -1.2256059888750315,
            51.72049328684807
          ],
          [
            -1.225879406556487,
            51.72049328684807
          ],
          [
            -1.2261339649558067,
            51.7204674705863
          ],
          [
            -1.2263601087033749,
            51.72050753608346
          ],
          [
            -1.226420709863305,
            51.720647513866425
          ],
          [
            -1.2265057023614645,
            51.7208094522357
          ],
          [
            -1.2266490329056978,
            51.72095714136958
          ],
          [
            -1.2267901003360748,
            51.721066357567906
          ],
          [
            -1.226952038705349,
            51.72116476111114
          ],
          [
            -1.2271196767687798,
            51.72125570476055
          ],
          [
            -1.2272978760302067,
            51.72135008499026
          ],
          [
            -1.2274829484522343,
            51.72144387848675
          ],
          [
            -1.2276787497103214,
            51.72154722735286
          ],
          [
            -1.2278789933770895,
            51.72164412215352
          ],
          [
            -1.2280759681016207,
            51.72173992730677
          ],
          [
            -1.2282557599246502,
            51.72183665446937
          ],
          [
            -1.22845315374434,
            51.721957102417946
          ],
          [
            -1.2286673951894045,
            51.722038239240646
          ],
          [
            -1.2288933712989092,
            51.72199884429574
          ],
          [
            -1.22913284227252,
            51.721942434087396
          ],
          [
            -1.2293707206845284,
            51.72190194949508
          ],
          [
            -1.229558726772666,
            51.72199431806803
          ],
          [
            -1.2297500856220722,
            51.72208442352712
          ],
          [
            -1.2300069071352482,
            51.722099259495735
          ],
          [
            -1.2302176281809807,
            51.72202918678522
          ],
          [
            -1.2304478790611029,
            51.72202717512846
          ],
          [
            -1.2307118251919746,
            51.72201393172145
          ],
          [
            -1.2309505417943,
            51.72198610380292
          ],
          [
            -1.2311847321689129,
            51.721935141831636
          ],
          [
            -1.2314027454704046,
            51.72188417986035
          ],
          [
            -1.2311780266463757,
            51.72195475548506
          ],
          [
            -1.2309631146490574,
            51.722016194835305
          ],
          [
            -1.2307489570230246,
            51.72205894254148
          ],
          [
            -1.2305186223238707,
            51.722093895077705
          ],
          [
            -1.2302997708320618,
            51.722060618922114
          ],
          [
            -1.2300716992467642,
            51.72213580459356
          ],
          [
            -1.2298070825636387,
            51.7221390735358
          ],
          [
            -1.2295829504728317,
            51.72205701470375
          ],
          [
            -1.2293683737516403,
            51.72196431085467
          ],
          [
            -1.2291538808494806,
            51.72200035303831
          ],
          [
            -1.2289279885590076,
            51.72204486094415
          ],
          [
            -1.2286986596882343,
            51.72211459837854
          ],
          [
            -1.2284850049763918,
            51.72202130779624
          ],
          [
            -1.228296747431159,
            51.72191544435918
          ],
          [
            -1.2281234096735716,
            51.721821650862694
          ],
          [
            -1.2279328051954508,
            51.7217175476253
          ],
          [
            -1.2277353275567293,
            51.721610678359866
          ],
          [
            -1.2275379337370396,
            51.721505317837
          ],
          [
            -1.22734104283154,
            51.72140750102699
          ],
          [
            -1.2271604966372252,
            51.721304738894105
          ],
          [
            -1.2269548047333956,
            51.72118278220296
          ],
          [
            -1.226752381771803,
            51.72105772420764
          ],
          [
            -1.2266031838953495,
            51.72093987464905
          ],
          [
            -1.2264882680028677,
            51.72077869065106
          ],
          [
            -1.2264071311801672,
            51.72062479890883
          ],
          [
            -1.2263047881424427,
            51.72049739398062
          ],
          [
            -1.2260789796710014,
            51.720487335696816
          ],
          [
            -1.2258307915180922,
            51.72050477005541
          ],
          [
            -1.2255717068910599,
            51.72050477005541
          ],
          [
            -1.2253469042479992,
            51.720505356788635
          ],
          [
            -1.2251858040690422,
            51.72040234319866
          ],
          [
            -1.225347826257348,
            51.720266472548246
          ],
          [
            -1.2255057413130999,
            51.72012506984174
          ],
          [
            -1.2256754748523235,
            51.71997997909784
          ],
          [
            -1.225802879780531,
            51.71986749395728
          ],
          [
            -1.2259288597851992,
            51.719750901684165
          ],
          [
            -1.226063473150134,
            51.71963078901172
          ],
          [
            -1.2262309435755014,
            51.71949265524745
          ],
          [
            -1.2263933010399342,
            51.71938159503043
          ],
          [
            -1.2265731766819954,
            51.71927531249821
          ],
          [
            -1.2267752643674612,
            51.719145979732275
          ],
          [
            -1.2269271444529295,
            51.719020335003734
          ],
          [
            -1.2270651943981647,
            51.71887750737369
          ],
          [
            -1.227206513285637,
            51.71871766448021
          ],
          [
            -1.2273644283413887,
            51.718557653948665
          ],
          [
            -1.2275059148669243,
            51.718410132452846
          ],
          [
            -1.2276335712522268,
            51.718273339793086
          ],
          [
            -1.227761311456561,
            51.718143839389086
          ],
          [
            -1.2278740480542183,
            51.71801107004285
          ],
          [
            -1.2279584538191557,
            51.717874612659216
          ],
          [
            -1.2280476372689009,
            51.71770378947258
          ],
          [
            -1.228160373866558,
            51.717540342360735
          ],
          [
            -1.2282530777156353,
            51.717378068715334
          ],
          [
            -1.2283378187566996,
            51.717234905809164
          ],
          [
            -1.2284170277416706,
            51.71709283255041
          ],
          [
            -1.22849615290761,
            51.71693223528564
          ],
          [
            -1.2285929638892412,
            51.716766692698
          ],
          [
            -1.2287093047052622,
            51.71658815816045
          ],
          [
            -1.2287875916808844,
            51.71645882539451
          ],
          [
            -1.228858670219779,
            51.71632245182991
          ],
          [
            -1.2289291620254517,
            51.71618758700788
          ],
          [
            -1.2290052697062492,
            51.71605305746198
          ],
          [
            -1.2290684692561626,
            51.71591483987868
          ],
          [
            -1.2291232869029045,
            51.715771928429604
          ],
          [
            -1.2291827145963907,
            51.715633207932115
          ],
          [
            -1.2292320001870394,
            51.715492559596896
          ],
          [
            -1.2292585708200932,
            51.71535459347069
          ],
          [
            -1.229274244979024,
            51.71521360985935
          ],
          [
            -1.229283045977354,
            51.71507497318089
          ],
          [
            -1.229280699044466,
            51.71493382193148
          ],
          [
            -1.2292607501149178,
            51.71478847973049
          ],
          [
            -1.2292216066271067,
            51.71463894657791
          ],
          [
            -1.2291703093796968,
            51.7144959513098
          ],
          [
            -1.2291097920387983,
            51.71434683725238
          ],
          [
            -1.2290570698678493,
            51.7142007406801
          ],
          [
            -1.2289839796721935,
            51.714062355458736
          ],
          [
            -1.2288849893957376,
            51.71393008902669
          ],
          [
            -1.2287821434438229,
            51.71380796469748
          ],
          [
            -1.2286394834518433,
            51.71363010071218
          ],
          [
            -1.2284927163273096,
            51.71345910988748
          ],
          [
            -1.2283371482044458,
            51.71329063363373
          ],
          [
            -1.228180155158043,
            51.71312886290252
          ],
          [
            -1.2280250899493694,
            51.712969271466136
          ],
          [
            -1.227866169065237,
            51.71281537972391
          ],
          [
            -1.2276981119066477,
            51.71267489902675
          ],
          [
            -1.2275400292128325,
            51.712547075003386
          ],
          [
            -1.2273756600916386,
            51.7124340031296
          ],
          [
            -1.2272042501717806,
            51.712338365614414
          ],
          [
            -1.2269768491387367,
            51.71226276084781
          ],
          [
            -1.226757327094674,
            51.712342305108905
          ],
          [
            -1.226560603827238,
            51.712475242093205
          ],
          [
            -1.226388607174158,
            51.71256241388619
          ],
          [
            -1.2261581886559725,
            51.71258546411991
          ],
          [
            -1.2259226571768522,
            51.71256182715297
          ],
          [
            -1.2257121875882149,
            51.712508937343955
          ],
          [
            -1.2255188170820475,
            51.71240349300206
          ],
          [
            -1.225379090756178,
            51.71227617189288
          ],
          [
            -1.2252074293792248,
            51.71217198483646
          ],
          [
            -1.2253066711127758,
            51.71210249885917
          ]
        ]
      },
      "properties": {
        "name": "2026-10-03 (Sat) 17:49",
        "source_file": "2026-10-03-164934-ELEMNT_ROAM_A125-31-0.fit",
        "date": "2026-10-03T16:49:34",
        "sport": "cycling",
        "dropbox_id": "id:JY-PzzIM9pcAAAAAAAABRw"
      }
    },
    {
      "type": "Feature",
      "geometry": {
        "type": "LineString",
        "coordinates": [
          [
            -1.2252316530793905,
            51.71211238950491
          ],
          [
            -1.2253546994179487,
            51.71224867925048
          ],
          [
            -1.2255041487514973,
            51.712390249595046
          ],
          [
            -1.2256740499287844,
            51.71249845996499
          ],
          [
            -1.2258765567094088,
            51.7125637549907
          ],
          [
            -1.2261021975427866,
            51.712595354765654
          ],
          [
            -1.2263708375394344,
            51.712592421099544
          ],
          [
            -1.226579463109374,
            51.71250198036432
          ],
          [
            -1.2267264816910028,
            51.71240081079304
          ],
          [
            -1.226659258827567,
            51.71225890517235
          ],
          [
            -1.2264746893197298,
            51.71213669702411
          ],
          [
            -1.2263141758739948,
            51.71200644224882
          ],
          [
            -1.226211665198207,
            51.71187434345484
          ],
          [
            -1.2262052949517965,
            51.71173034235835
          ],
          [
            -1.2260694243013859,
            51.711602099239826
          ],
          [
            -1.226244354620576,
            51.711510065943
          ],
          [
            -1.2264606915414333,
            51.71154870651662
          ],
          [
            -1.2267005816102028,
            51.71159639954567
          ],
          [
            -1.2269698083400726,
            51.71162070706487
          ],
          [
            -1.227250099182129,
            51.71164761297405
          ],
          [
            -1.2274687830358744,
            51.71166060492396
          ],
          [
            -1.2277035601437092,
            51.71167208813131
          ],
          [
            -1.2279387563467026,
            51.71168181113899
          ],
          [
            -1.2281767185777426,
            51.71166613698006
          ],
          [
            -1.2284530699253082,
            51.71166395768523
          ],
          [
            -1.228732019662857,
            51.71165255829692
          ],
          [
            -1.229004766792059,
            51.7116432543844
          ],
          [
            -1.2292717304080725,
            51.71163353137672
          ],
          [
            -1.2295433040708303,
            51.71161433681846
          ],
          [
            -1.2297602277249098,
            51.71157938428223
          ],
          [
            -1.229973966255784,
            51.711514089256525
          ],
          [
            -1.2302188016474247,
            51.711437394842505
          ],
          [
            -1.2304824963212013,
            51.71135516837239
          ],
          [
            -1.2307525612413883,
            51.711268248036504
          ],
          [
            -1.2310043536126614,
            51.711165737360716
          ],
          [
            -1.2311387155205011,
            51.71101402491331
          ],
          [
            -1.231132261455059,
            51.71085661277175
          ],
          [
            -1.2310691457241774,
            51.710710348561406
          ],
          [
            -1.2310139928013086,
            51.71057229861617
          ],
          [
            -1.2309673894196749,
            51.710429303348064
          ],
          [
            -1.2309301737695932,
            51.71027951873839
          ],
          [
            -1.2309123203158379,
            51.71012629754841
          ],
          [
            -1.2309504579752684,
            51.70999017544091
          ],
          [
            -1.2310911063104868,
            51.70986922457814
          ],
          [
            -1.2312662042677402,
            51.70974693261087
          ],
          [
            -1.2314096186310053,
            51.70961743220687
          ],
          [
            -1.2315203435719013,
            51.70947276055813
          ],
          [
            -1.231604665517807,
            51.709319120272994
          ],
          [
            -1.2316696252673864,
            51.70917805284262
          ],
          [
            -1.231716563925147,
            51.7090321239084
          ],
          [
            -1.2317652627825737,
            51.70885995961726
          ],
          [
            -1.2319235131144524,
            51.70875342562795
          ],
          [
            -1.2321483995765448,
            51.70875761657953
          ],
          [
            -1.2323124334216118,
            51.708665331825614
          ],
          [
            -1.232303213328123,
            51.708520324900746
          ],
          [
            -1.2322949152439833,
            51.708380933851004
          ],
          [
            -1.2323079910129309,
            51.70823802240193
          ],
          [
            -1.2325340509414673,
            51.70824816450477
          ],
          [
            -1.2327202968299389,
            51.70816560275853
          ],
          [
            -1.2328235618770123,
            51.70804213732481
          ],
          [
            -1.2330567464232445,
            51.708012549206614
          ],
          [
            -1.233132854104042,
            51.707885060459375
          ],
          [
            -1.2332078721374273,
            51.70774164609611
          ],
          [
            -1.2332970555871725,
            51.70759303495288
          ],
          [
            -1.2333379592746496,
            51.70745682902634
          ],
          [
            -1.2333854008466005,
            51.70730838552117
          ],
          [
            -1.2334483489394188,
            51.70717662200332
          ],
          [
            -1.2336209323257208,
            51.707042176276445
          ],
          [
            -1.233748672530055,
            51.70692667365074
          ],
          [
            -1.2339853774756193,
            51.706861797720194
          ],
          [
            -1.2342546042054892,
            51.706851655617356
          ],
          [
            -1.2344885431230068,
            51.70680932700634
          ],
          [
            -1.2347068917006254,
            51.70675761066377
          ],
          [
            -1.2349439319223166,
            51.70668468810618
          ],
          [
            -1.2351585924625397,
            51.70663129538298
          ],
          [
            -1.235381718724966,
            51.7065557744354
          ],
          [
            -1.2356135621666908,
            51.70647497288883
          ],
          [
            -1.235837023705244,
            51.70637556351721
          ],
          [
            -1.2360490020364523,
            51.70628780499101
          ],
          [
            -1.2362432945519686,
            51.706200297921896
          ],
          [
            -1.2364765629172325,
            51.70612284913659
          ],
          [
            -1.2366669997572899,
            51.70605135150254
          ],
          [
            -1.2368596997112036,
            51.70597331598401
          ],
          [
            -1.2371031939983368,
            51.70593752525747
          ],
          [
            -1.2373214587569237,
            51.70604699291289
          ],
          [
            -1.2375487759709358,
            51.70609435066581
          ],
          [
            -1.2376124784350395,
            51.70595998875797
          ],
          [
            -1.2374466843903065,
            51.705827973783016
          ],
          [
            -1.2373757734894753,
            51.70568497851491
          ],
          [
            -1.2371469475328922,
            51.70568271540105
          ],
          [
            -1.2369154393672943,
            51.705641811713576
          ],
          [
            -1.2370734382420778,
            51.705740885809064
          ],
          [
            -1.23713169246912,
            51.70588916167617
          ],
          [
            -1.236940585076809,
            51.705969627946615
          ],
          [
            -1.236738245934248,
            51.70603928156197
          ],
          [
            -1.2365133594721556,
            51.70612863264978
          ],
          [
            -1.2363079190254211,
            51.70619619078934
          ],
          [
            -1.23611681163311,
            51.70627623796463
          ],
          [
            -1.235925117507577,
            51.70636843889952
          ],
          [
            -1.235698889940977,
            51.70646189711988
          ],
          [
            -1.2354746740311384,
            51.70655082911253
          ],
          [
            -1.2352647073566914,
            51.706609753891826
          ],
          [
            -1.2350285053253174,
            51.70668602921069
          ],
          [
            -1.2348223943263292,
            51.706742187961936
          ],
          [
            -1.234614858403802,
            51.706801699474454
          ],
          [
            -1.2343618925660849,
            51.706866743043065
          ],
          [
            -1.2341376766562462,
            51.706886272877455
          ],
          [
            -1.233895942568779,
            51.70687336474657
          ],
          [
            -1.2337400391697884,
            51.70698719099164
          ],
          [
            -1.2335944455116987,
            51.70709699392319
          ],
          [
            -1.2334475107491016,
            51.707220710814
          ],
          [
            -1.233389088883996,
            51.7073621135205
          ],
          [
            -1.2333382945507765,
            51.70752128586173
          ],
          [
            -1.2332713231444359,
            51.7076850682497
          ],
          [
            -1.2332029268145561,
            51.70781934633851
          ],
          [
            -1.2331261485815048,
            51.707974411547184
          ],
          [
            -1.232954990118742,
            51.70806501992047
          ],
          [
            -1.232760027050972,
            51.708132829517126
          ],
          [
            -1.232693139463663,
            51.708265682682395
          ],
          [
            -1.2324649840593338,
            51.70824204571545
          ],
          [
            -1.232325593009591,
            51.70835427939892
          ],
          [
            -1.2323292810469866,
            51.708491491153836
          ],
          [
            -1.2323489785194397,
            51.70862736180425
          ],
          [
            -1.232324419543147,
            51.708766082301736
          ],
          [
            -1.232093246653676,
            51.708768429234624
          ],
          [
            -1.2318610679358244,
            51.70877303928137
          ],
          [
            -1.2317923363298178,
            51.70890295878053
          ],
          [
            -1.2317452300339937,
            51.709048971533775
          ],
          [
            -1.231688903644681,
            51.709207724779844
          ],
          [
            -1.2316256202757359,
            51.70934300869703
          ],
          [
            -1.2315500993281603,
            51.70948709361255
          ],
          [
            -1.2314368598163128,
            51.70962497591972
          ],
          [
            -1.2313035037368536,
            51.70975288376212
          ],
          [
            -1.231152294203639,
            51.70987014658749
          ],
          [
            -1.2310023419559002,
            51.70998690649867
          ],
          [
            -1.2309483624994755,
            51.710136607289314
          ],
          [
            -1.2309657130390406,
            51.710293013602495
          ],
          [
            -1.2309973128139973,
            51.710449336096644
          ],
          [
            -1.2310533877462149,
            51.710601802915335
          ],
          [
            -1.231129914522171,
            51.71076860278845
          ],
          [
            -1.2311945389956236,
            51.710941437631845
          ],
          [
            -1.2311430741101503,
            51.71110832132399
          ],
          [
            -1.230932017788291,
            51.711233127862215
          ],
          [
            -1.2307384796440601,
            51.711295656859875
          ],
          [
            -1.2305320333689451,
            51.711352905258536
          ],
          [
            -1.23032558709383,
            51.71141417697072
          ],
          [
            -1.2301250081509352,
            51.711484752595425
          ],
          [
            -1.229919819161296,
            51.71155541203916
          ],
          [
            -1.2296520173549652,
            51.71161601319909
          ],
          [
            -1.2294080201536417,
            51.71164610423148
          ],
          [
            -1.2291453313082457,
            51.7116622813046
          ],
          [
            -1.228904603049159,
            51.71167225576937
          ],
          [
            -1.2286782078444958,
            51.71168373897672
          ],
          [
            -1.2284570094197989,
            51.71169128268957
          ],
          [
            -1.2282419297844172,
            51.711668483912945
          ],
          [
            -1.228007571771741,
            51.71167225576937
          ],
          [
            -1.2277511693537235,
            51.711669908836484
          ],
          [
            -1.2274943478405476,
            51.71165993437171
          ],
          [
            -1.2272384483367205,
            51.711642583832145
          ],
          [
            -1.2269677128642797,
            51.71161936596036
          ],
          [
            -1.2267139088362455,
            51.71158902347088
          ],
          [
            -1.2264774553477764,
            51.711556166410446
          ],
          [
            -1.2262389063835144,
            51.71151962131262
          ],
          [
            -1.2262041214853525,
            51.71165607869625
          ],
          [
            -1.226365976035595,
            51.711769653484225
          ],
          [
            -1.2265151739120483,
            51.71187752857804
          ],
          [
            -1.2267091311514378,
            51.71200493350625
          ],
          [
            -1.2268891744315624,
            51.71211892738938
          ],
          [
            -1.2268906831741333,
            51.712273405864835
          ],
          [
            -1.2266995757818222,
            51.71238815411925
          ],
          [
            -1.2265175208449364,
            51.71252620406449
          ],
          [
            -1.226247539743781,
            51.71258923597634
          ],
          [
            -1.2260197196155787,
            51.71257699839771
          ],
          [
            -1.225799024105072,
            51.712539782747626
          ],
          [
            -1.2256105989217758,
            51.71247113496065
          ],
          [
            -1.225456539541483,
            51.71235370449722
          ],
          [
            -1.2253271229565144,
            51.71224038116634
          ],
          [
            -1.2251562159508467,
            51.71214901842177
          ],
          [
            -1.225288650020957,
            51.712100990116596
          ]
        ]
      },
      "properties": {
        "name": "2026-10-04 (Sun) 12:09",
        "source_file": "2026-10-04-110921-ELEMNT_ROAM_A125-32-0.fit",
        "date": "2026-10-04T11:09:21",
        "sport": "cycling",
        "dropbox_id": "id:JY-PzzIM9pcAAAAAAAABSA"
      }
    }
  ]
}