{
  "type": "FeatureCollection",
  "features": [
    {
      "type": "Feature",
      "geometry": {
        "type": "LineString",
        "coordinates": [
          [
            -0.049303360283374786,
            51.51424029842019
          ],
          [
            -0.0490698404610157,
            51.514242477715015
          ],
          [
            -0.04883573390543461,
            51.51426921598613
          ],
          [
            -0.048624761402606964,
            51.5142154879868
          ],
          [
            -0.04860866814851761,
            51.51404382660985
          ],
          [
            -0.048588719218969345,
            51.513876440003514
          ],
          [
            -0.048549408093094826,
            51.5137268230319
          ],
          [
            -0.048512862995266914,
            51.513566225767136
          ],
          [
            -0.04852518439292908,
            51.51341333985329
          ],
          [
            -0.04853080026805401,
            51.51327663101256
          ],
          [
            -0.0487518310546875,
            51.513237319886684
          ],
          [
            -0.04896548576653004,
            51.51329825632274
          ],
          [
            -0.048785023391246796,
            51.51321561075747
          ],
          [
            -0.04875359125435352,
            51.51307160966098
          ],
          [
            -0.0487387552857399,
            51.51292040012777
          ],
          [
            -0.04870380274951458,
            51.5127563662827
          ],
          [
            -0.04867119714617729,
            51.51257892139256
          ],
          [
            -0.048626940697431564,
            51.51239946484566
          ],
          [
            -0.04860305227339268,
            51.51226040907204
          ],
          [
            -0.04858318716287613,
            51.51210643351078
          ],
          [
            -0.04852937534451485,
            51.51192404329777
          ],
          [
            -0.0485182274132967,
            51.51178389787674
          ],
          [
            -0.04846475087106228,
            51.51161232031882
          ],
          [
            -0.0484414491802454,
            51.511458260938525
          ],
          [
            -0.04847673699259758,
            51.511313673108816
          ],
          [
            -0.0487055629491806,
            51.51129154488444
          ],
          [
            -0.0489799864590168,
            51.511281821876764
          ],
          [
            -0.04920026287436485,
            51.511264303699136
          ],
          [
            -0.049485163763165474,
            51.511239828541875
          ],
          [
            -0.04975883290171623,
            51.51122088544071
          ],
          [
            -0.05003803409636021,
            51.51119951158762
          ],
          [
            -0.05029192194342613,
            51.511174868792295
          ],
          [
            -0.05055729299783707,
            51.51114243082702
          ],
          [
            -0.050829704850912094,
            51.5111021976918
          ],
          [
            -0.051107145845890045,
            51.511069843545556
          ],
          [
            -0.05132138729095459,
            51.511044865474105
          ],
          [
            -0.051536550745368004,
            51.5110089071095
          ],
          [
            -0.051760850474238396,
            51.5109724458307
          ],
          [
            -0.05198925733566284,
            51.51093573309481
          ],
          [
            -0.052239708602428436,
            51.51085945777595
          ],
          [
            -0.052466439083218575,
            51.510823583230376
          ],
          [
            -0.05269099026918411,
            51.51079734787345
          ],
          [
            -0.05297547206282616,
            51.51078418828547
          ],
          [
            -0.05319331772625446,
            51.510791815817356
          ],
          [
            -0.053467825055122375,
            51.510813273489475
          ],
          [
            -0.05370268598198891,
            51.51087328791618
          ],
          [
            -0.05396420136094093,
            51.510933469980955
          ],
          [
            -0.054244911298155785,
            51.51095241308212
          ],
          [
            -0.05446619354188442,
            51.51097722351551
          ],
          [
            -0.05469510331749916,
            51.51099868118763
          ],
          [
            -0.05494077689945698,
            51.51099180802703
          ],
          [
            -0.055178990587592125,
            51.51099608279765
          ],
          [
            -0.05541393533349037,
            51.51100161485374
          ],
          [
            -0.055660614743828773,
            51.51099566370249
          ],
          [
            -0.055903270840644836,
            51.510986192151904
          ],
          [
            -0.05614358000457287,
            51.51097487658262
          ],
          [
            -0.05635933019220829,
            51.510955514386296
          ],
          [
            -0.05659762769937515,
            51.51095584966242
          ],
          [
            -0.05682108923792839,
            51.51095584966242
          ],
          [
            -0.05705921910703182,
            51.51098594069481
          ],
          [
            -0.057328613474965096,
            51.51101728901267
          ],
          [
            -0.057605886831879616,
            51.51104947552085
          ],
          [
            -0.05782775580883026,
            51.511066406965256
          ],
          [
            -0.05806362256407738,
            51.51107235811651
          ],
          [
            -0.05829588510096073,
            51.51107235811651
          ],
          [
            -0.05852546542882919,
            51.511080069467425
          ],
          [
            -0.058758482336997986,
            51.51109146885574
          ],
          [
            -0.058987559750676155,
            51.51109113357961
          ],
          [
            -0.059213871136307716,
            51.511083422228694
          ],
          [
            -0.0594441220164299,
            51.511075710877776
          ],
          [
            -0.05969826132059097,
            51.51107990182936
          ],
          [
            -0.05994435399770737,
            51.51111049577594
          ],
          [
            -0.060218190774321556,
            51.5111487172544
          ],
          [
            -0.06047777831554413,
            51.511155841872096
          ],
          [
            -0.06071020849049091,
            51.511150393635035
          ],
          [
            -0.060960324481129646,
            51.511132288724184
          ],
          [
            -0.061240196228027344,
            51.511108400300145
          ],
          [
            -0.06146516650915146,
            51.511108400300145
          ],
          [
            -0.061703212559223175,
            51.51110244914889
          ],
          [
            -0.06193798966705799,
            51.511098593473434
          ],
          [
            -0.06218215450644493,
            51.511104544624686
          ],
          [
            -0.06242221221327782,
            51.51112390682101
          ],
          [
            -0.06267517805099487,
            51.511141089722514
          ],
          [
            -0.06292973645031452,
            51.511156260967255
          ],
          [
            -0.06318328902125359,
            51.51115802116692
          ],
          [
            -0.06342737004160881,
            51.51115416549146
          ],
          [
            -0.06366709247231483,
            51.511150393635035
          ],
          [
            -0.06391016766428947,
            51.51115416549146
          ],
          [
            -0.06415416486561298,
            51.511146537959576
          ],
          [
            -0.06441316567361355,
            51.511140670627356
          ],
          [
            -0.0646879244595766,
            51.51113513857126
          ],
          [
            -0.06497014313936234,
            51.51112533174455
          ],
          [
            -0.06525009870529175,
            51.511111753061414
          ],
          [
            -0.06552368402481079,
            51.511096665635705
          ],
          [
            -0.06578737869858742,
            51.51107185520232
          ],
          [
            -0.06605124101042747,
            51.51105106808245
          ],
          [
            -0.06631418131291866,
            51.51102785021067
          ],
          [
            -0.0665686558932066,
            51.511007230728865
          ],
          [
            -0.06682857871055603,
            51.51098979637027
          ],
          [
            -0.06708506494760513,
            51.51096490211785
          ],
          [
            -0.06734373047947884,
            51.51093631982803
          ],
          [
            -0.06758990697562695,
            51.510917376726866
          ],
          [
            -0.06782242096960545,
            51.51090036146343
          ],
          [
            -0.06806273013353348,
            51.510885106399655
          ],
          [
            -0.06831234320998192,
            51.51087370701134
          ],
          [
            -0.06854971870779991,
            51.51085845194757
          ],
          [
            -0.06878843531012535,
            51.51083339005709
          ],
          [
            -0.06901700980961323,
            51.51081050746143
          ],
          [
            -0.06924985907971859,
            51.510766334831715
          ],
          [
            -0.06951221264898777,
            51.510741859674454
          ],
          [
            -0.06978001445531845,
            51.51071495376527
          ],
          [
            -0.06999417208135128,
            51.510648066177964
          ],
          [
            -0.07021981291472912,
            51.51059660129249
          ],
          [
            -0.07044704630970955,
            51.510554356500506
          ],
          [
            -0.07068609818816185,
            51.51050481945276
          ],
          [
            -0.07091810926795006,
            51.510448744520545
          ],
          [
            -0.07114098407328129,
            51.51038688607514
          ],
          [
            -0.0713686365634203,
            51.51034438982606
          ],
          [
            -0.07158899679780006,
            51.5103127900511
          ],
          [
            -0.07181170396506786,
            51.510299295187
          ],
          [
            -0.07202384993433952,
            51.51026861742139
          ],
          [
            -0.07227237336337566,
            51.51023257523775
          ],
          [
            -0.07248938083648682,
            51.510209860280156
          ],
          [
            -0.07274150848388672,
            51.51019829325378
          ],
          [
            -0.07301274687051773,
            51.51014272123575
          ],
          [
            -0.07323453202843666,
            51.51012419722974
          ],
          [
            -0.07346386089920998,
            51.51010843925178
          ],
          [
            -0.07368874736130238,
            51.51009310036898
          ],
          [
            -0.07390491664409637,
            51.510111121460795
          ],
          [
            -0.07412955164909363,
            51.510139452293515
          ],
          [
            -0.0743608083575964,
            51.510129645466805
          ],
          [
            -0.07461578585207462,
            51.51010265573859
          ],
          [
            -0.07485383190214634,
            51.510063679888844
          ],
          [
            -0.07507888600230217,
            51.509975250810385
          ],
          [
            -0.07532883435487747,
            51.509879026561975
          ],
          [
            -0.07560954429209232,
            51.509787077084184
          ],
          [
            -0.07580844685435295,
            51.50972974486649
          ],
          [
            -0.07609527558088303,
            51.50966721586883
          ],
          [
            -0.07634807378053665,
            51.509627904742956
          ],
          [
            -0.07660548202693462,
            51.509595131501555
          ],
          [
            -0.07685828022658825,
            51.50956101715565
          ],
          [
            -0.07711987942457199,
            51.509538386017084
          ],
          [
            -0.07737787440419197,
            51.50952103547752
          ],
          [
            -0.07763486355543137,
            51.50950795970857
          ],
          [
            -0.07786855101585388,
            51.509500751271844
          ],
          [
            -0.07811682298779488,
            51.50954098440707
          ],
          [
            -0.07836073637008667,
            51.50959479622543
          ],
          [
            -0.07861504331231117,
            51.50964776985347
          ],
          [
            -0.07883992977440357,
            51.50965707376599
          ],
          [
            -0.0790905486792326,
            51.50966855697334
          ],
          [
            -0.07935432717204094,
            51.50967995636165
          ],
          [
            -0.07961777038872242,
            51.509685488417745
          ],
          [
            -0.079877944663167,
            51.50968146510422
          ],
          [
            -0.08013241924345493,
            51.509638549759984
          ],
          [
            -0.08035772480070591,
            51.50954115204513
          ],
          [
            -0.08057749830186367,
            51.50943595916033
          ],
          [
            -0.08081621490418911,
            51.50932774879038
          ],
          [
            -0.08109834976494312,
            51.509226746857166
          ],
          [
            -0.08130487985908985,
            51.50917804799974
          ],
          [
            -0.08162540383636951,
            51.50913957506418
          ],
          [
            -0.08185322396457195,
            51.50911887176335
          ],
          [
            -0.08209018036723137,
            51.50912742130458
          ],
          [
            -0.08232244290411472,
            51.50914837606251
          ],
          [
            -0.08255286142230034,
            51.509172935038805
          ],
          [
            -0.08287087082862854,
            51.50920721702278
          ],
          [
            -0.08318410255014896,
            51.509263375774026
          ],
          [
            -0.08339473977684975,
            51.50929723866284
          ],
          [
            -0.08370042778551579,
            51.50933294557035
          ],
          [
            -0.08401080965995789,
            51.509367395192385
          ],
          [
            -0.08432605303823948,
            51.50939983315766
          ],
          [
            -0.08462503552436829,
            51.5094287507236
          ],
          [
            -0.08489568717777729,
            51.5094649605453
          ],
          [
            -0.08515116758644581,
            51.50950091890991
          ],
          [
            -0.08540513925254345,
            51.509535452350974
          ],
          [
            -0.08564134128391743,
            51.50956344790757
          ],
          [
            -0.08587787859141827,
            51.50959110818803
          ],
          [
            -0.08612162433564663,
            51.50964600965381
          ],
          [
            -0.08636964485049248,
            51.50967995636165
          ],
          [
            -0.08662713691592216,
            51.50970342569053
          ],
          [
            -0.0868652667850256,
            51.50973225943744
          ],
          [
            -0.08709518238902092,
            51.509781796485186
          ],
          [
            -0.08738938719034195,
            51.50981524027884
          ],
          [
            -0.08765526115894318,
            51.50984994135797
          ],
          [
            -0.0878557562828064,
            51.509917583316565
          ],
          [
            -0.08811458945274353,
            51.509978184476495
          ],
          [
            -0.08842069655656815,
            51.51000919751823
          ],
          [
            -0.08868849836289883,
            51.51004834100604
          ],
          [
            -0.08896074257791042,
            51.510083293542266
          ],
          [
            -0.08922787383198738,
            51.510149259120226
          ],
          [
            -0.08944186381995678,
            51.510232742875814
          ],
          [
            -0.089674461632967,
            51.51029099710286
          ],
          [
            -0.08990814909338951,
            51.51034405454993
          ],
          [
            -0.09015558287501335,
            51.51039174757898
          ],
          [
            -0.09153499267995358,
            51.51074982248247
          ],
          [
            -0.09185308590531349,
            51.51075585745275
          ],
          [
            -0.0921319518238306,
            51.51077874004841
          ],
          [
            -0.09236924350261688,
            51.5108136087656
          ],
          [
            -0.0926072895526886,
            51.51084411889315
          ],
          [
            -0.09283661842346191,
            51.51088225655258
          ],
          [
            -0.09306971915066242,
            51.51091846637428
          ],
          [
            -0.09329988621175289,
            51.51096012443304
          ],
          [
            -0.09354664944112301,
            51.51098895817995
          ],
          [
            -0.09379047900438309,
            51.511018965393305
          ],
          [
            -0.09404143318533897,
            51.51105190627277
          ],
          [
            -0.09429657831788063,
            51.5110881999135
          ],
          [
            -0.09453998878598213,
            51.51112633757293
          ],
          [
            -0.09479496628046036,
            51.51115450076759
          ],
          [
            -0.09504759684205055,
            51.51118584908545
          ],
          [
            -0.09530634619295597,
            51.511275032535195
          ],
          [
            -0.09556031785905361,
            51.511296993121505
          ],
          [
            -0.09583909995853901,
            51.511291209608316
          ],
          [
            -0.09611503221094608,
            51.5112885273993
          ],
          [
            -0.0963960774242878,
            51.511301854625344
          ],
          [
            -0.09667452424764633,
            51.511301351711154
          ],
          [
            -0.09692799299955368,
            51.51132792234421
          ],
          [
            -0.10143997147679329,
            51.51119615882635
          ],
          [
            -0.10174239054322243,
            51.51114804670215
          ],
          [
            -0.10207305662333965,
            51.511138239875436
          ],
          [
            -0.10237002745270729,
            51.51111301034689
          ],
          [
            -0.10264034382998943,
            51.51108861900866
          ],
          [
            -0.10293010622262955,
            51.511066406965256
          ],
          [
            -0.10314049199223518,
            51.51110068894923
          ],
          [
            -0.10339295491576195,
            51.51111988350749
          ],
          [
            -0.10367617942392826,
            51.51110169477761
          ],
          [
            -0.10394473560154438,
            51.511089289560914
          ],
          [
            -0.10423500090837479,
            51.511113345623016
          ],
          [
            -0.10448059067130089,
            51.51113849133253
          ],
          [
            -0.10474738664925098,
            51.51116053573787
          ],
          [
            -0.10505902580916882,
            51.511114770546556
          ],
          [
            -0.10529497638344765,
            51.51108853518963
          ],
          [
            -0.1055724173784256,
            51.51107185520232
          ],
          [
            -0.10582077316939831,
            51.511070262640715
          ],
          [
            -0.1060635969042778,
            51.511070262640715
          ],
          [
            -0.10631237179040909,
            51.51107193902135
          ],
          [
            -0.10656282305717468,
            51.51107403449714
          ],
          [
            -0.10682878084480762,
            51.511075710877776
          ],
          [
            -0.10709499008953571,
            51.511083925142884
          ],
          [
            -0.10735206305980682,
            51.51109750382602
          ],
          [
            -0.1076051127165556,
            51.51111661456525
          ],
          [
            -0.10783268138766289,
            51.5111296903342
          ],
          [
            -0.10800166055560112,
            51.511023826897144
          ],
          [
            -0.10824305936694145,
            51.51095040142536
          ],
          [
            -0.10847825556993484,
            51.51094822213054
          ],
          [
            -0.10871412232518196,
            51.51094436645508
          ],
          [
            -0.10896331630647182,
            51.51094822213054
          ],
          [
            -0.10920270346105099,
            51.51094822213054
          ],
          [
            -0.10943303816020489,
            51.51095031760633
          ],
          [
            -0.1096678152680397,
            51.51095584966242
          ],
          [
            -0.10990309529006481,
            51.51095584966242
          ],
          [
            -0.11014013551175594,
            51.5109536703676
          ],
          [
            -0.11037868447601795,
            51.510951993986964
          ],
          [
            -0.11061647906899452,
            51.51095962151885
          ],
          [
            -0.1108439639210701,
            51.51095962151885
          ],
          [
            -0.11108779348433018,
            51.51096347719431
          ],
          [
            -0.1113356463611126,
            51.510961381718516
          ],
          [
            -0.11156950145959854,
            51.51095375418663
          ],
          [
            -0.11180578731000423,
            51.510938415303826
          ],
          [
            -0.11204794049263,
            51.51093288324773
          ],
          [
            -0.11228565126657486,
            51.51091167703271
          ],
          [
            -0.1125151477754116,
            51.51091176085174
          ],
          [
            -0.11274179443717003,
            51.51089424267411
          ],
          [
            -0.1129806786775589,
            51.51086976751685
          ],
          [
            -0.11322534643113613,
            51.51084688492119
          ],
          [
            -0.11345995590090752,
            51.510823583230376
          ],
          [
            -0.11369146406650543,
            51.51079508475959
          ],
          [
            -0.11391056701540947,
            51.51076675392687
          ],
          [
            -0.11419647373259068,
            51.51073205284774
          ],
          [
            -0.11442890390753746,
            51.51069391518831
          ],
          [
            -0.11466778814792633,
            51.51066156104207
          ],
          [
            -0.11489627882838249,
            51.51062736287713
          ],
          [
            -0.11511093936860561,
            51.51059852913022
          ],
          [
            -0.11533951386809349,
            51.5106550231576
          ],
          [
            -0.11542358435690403,
            51.51080380193889
          ],
          [
            -0.11532400734722614,
            51.51095375418663
          ],
          [
            -0.11512560769915581,
            51.51103254407644
          ],
          [
            -0.11501588858664036,
            51.511167576536536
          ],
          [
            -0.11510666459798813,
            51.51131484657526
          ],
          [
            -0.11522225104272366,
            51.51147938333452
          ],
          [
            -0.11529718525707722,
            51.51163327507675
          ],
          [
            -0.11538301594555378,
            51.51179186068475
          ],
          [
            -0.11548217386007309,
            51.511929240077734
          ],
          [
            -0.11556255631148815,
            51.51207558810711
          ],
          [
            -0.11563170701265335,
            51.51223501190543
          ],
          [
            -0.11570630595088005,
            51.51238949038088
          ],
          [
            -0.11591543443500996,
            51.51247481815517
          ],
          [
            -0.11605348438024521,
            51.51258185505867
          ],
          [
            -0.1161628682166338,
            51.512712109833956
          ],
          [
            -0.11614643968641758,
            51.512844040989876
          ]
        ]
      },
      "properties": {
        "name": "2024-01-31 (Wed) 07:51",
        "source_file": "2024-01-31-075114-ELEMNT_ROAM_A974-109-0.fit",
        "date": "2024-01-31T07:51:14",
        "sport": "cycling",
        "dropbox_id": "id:JY-PzzIM9pcAAAAAAAAAog"
      }
    },
    {
      "type": "Feature",
      "geometry": {
        "type": "LineString",
        "coordinates": [
          [
            -0.1156766340136528,
            51.512489318847656
          ],
          [
            -0.11560052633285522,
            51.51233953423798
          ],
          [
            -0.11551695875823498,
            51.512171225622296
          ],
          [
            -0.115443030372262,
            51.51201733388007
          ],
          [
            -0.1153390109539032,
            51.51183821260929
          ],
          [
            -0.11526851914823055,
            51.51170854456723
          ],
          [
            -0.11519232764840126,
            51.511549372226
          ],
          [
            -0.11511068791151047,
            51.51141241192818
          ],
          [
            -0.11505997739732265,
            51.51128048077226
          ],
          [
            -0.11482142843306065,
            51.51127754710615
          ],
          [
            -0.11462772265076637,
            51.511342003941536
          ],
          [
            -0.11442672461271286,
            51.511406879872084
          ],
          [
            -0.11422228999435902,
            51.51148290373385
          ],
          [
            -0.11402305215597153,
            51.51154560036957
          ],
          [
            -0.11374871246516705,
            51.51161097921431
          ],
          [
            -0.113453334197402,
            51.511645847931504
          ],
          [
            -0.11314144358038902,
            51.511664874851704
          ],
          [
            -0.11284824460744858,
            51.511680632829666
          ],
          [
            -0.11256979778409004,
            51.51166805997491
          ],
          [
            -0.11235597543418407,
            51.51161382906139
          ],
          [
            -0.1122379582375288,
            51.511470917612314
          ],
          [
            -0.1121873315423727,
            51.51133328676224
          ],
          [
            -0.11212966404855251,
            51.51118987239897
          ],
          [
            -0.1120468508452177,
            51.5110501460731
          ],
          [
            -0.1118012610822916,
            51.511031622067094
          ],
          [
            -0.11158199049532413,
            51.51104897260666
          ],
          [
            -0.11135660111904144,
            51.51105333119631
          ],
          [
            -0.11109785176813602,
            51.51104955933988
          ],
          [
            -0.11082946322858334,
            51.5110435243696
          ],
          [
            -0.1105586439371109,
            51.511032124981284
          ],
          [
            -0.11029846966266632,
            51.511028269305825
          ],
          [
            -0.11005572974681854,
            51.511022821068764
          ],
          [
            -0.10980192571878433,
            51.51101686991751
          ],
          [
            -0.10955809615552425,
            51.51101519353688
          ],
          [
            -0.10930471122264862,
            51.51100756600499
          ],
          [
            -0.10904897935688496,
            51.5110070630908
          ],
          [
            -0.1088150404393673,
            51.511003794148564
          ],
          [
            -0.10859610512852669,
            51.510990131646395
          ],
          [
            -0.10832813568413258,
            51.51098635978997
          ],
          [
            -0.10810299776494503,
            51.51100840419531
          ],
          [
            -0.10807877406477928,
            51.511162212118506
          ],
          [
            -0.1078578270971775,
            51.511183083057404
          ],
          [
            -0.10758357122540474,
            51.511166151613
          ],
          [
            -0.10729682631790638,
            51.511146537959576
          ],
          [
            -0.10707076638936996,
            51.51113513857126
          ],
          [
            -0.10683917440474033,
            51.51113346219063
          ],
          [
            -0.10661437176167965,
            51.51112365536392
          ],
          [
            -0.10637414641678333,
            51.511122062802315
          ],
          [
            -0.10610760189592838,
            51.51111602783203
          ],
          [
            -0.10582412593066692,
            51.51111049577594
          ],
          [
            -0.10552489198744297,
            51.511108400300145
          ],
          [
            -0.10520981624722481,
            51.511108400300145
          ],
          [
            -0.10498560033738613,
            51.51110077276826
          ],
          [
            -0.1047681737691164,
            51.51111686602235
          ],
          [
            -0.10445686988532543,
            51.51117227040231
          ],
          [
            -0.10416165925562382,
            51.51122013106942
          ],
          [
            -0.10384096764028072,
            51.51122935116291
          ],
          [
            -0.10357014834880829,
            51.511216359212995
          ],
          [
            -0.10333629325032234,
            51.511217365041375
          ],
          [
            -0.10310344398021698,
            51.51129137724638
          ],
          [
            -0.10287688113749027,
            51.51133672334254
          ],
          [
            -0.10263984091579914,
            51.511355582624674
          ],
          [
            -0.10240204632282257,
            51.51137871667743
          ],
          [
            -0.10219082236289978,
            51.511413333937526
          ],
          [
            -0.10205738246440887,
            51.511528082191944
          ],
          [
            -0.09648668579757214,
            51.511306799948215
          ],
          [
            -0.09625190868973732,
            51.511333202943206
          ],
          [
            -0.09597983211278915,
            51.51134627871215
          ],
          [
            -0.09575871750712395,
            51.51134602725506
          ],
          [
            -0.09554103948175907,
            51.51133479550481
          ],
          [
            -0.09534322656691074,
            51.511439653113484
          ],
          [
            -0.09513460099697113,
            51.51148986071348
          ],
          [
            -0.09491474367678165,
            51.51148298755288
          ],
          [
            -0.09459195658564568,
            51.51129690930247
          ],
          [
            -0.0943051278591156,
            51.51126941666007
          ],
          [
            -0.09403866715729237,
            51.51125173084438
          ],
          [
            -0.09379483759403229,
            51.511229602620006
          ],
          [
            -0.09354027919471264,
            51.511206049472094
          ],
          [
            -0.09332511574029922,
            51.51118400506675
          ],
          [
            -0.09306284599006176,
            51.511070262640715
          ],
          [
            -0.09283284656703472,
            51.51100597344339
          ],
          [
            -0.0925871729850769,
            51.51092215441167
          ],
          [
            -0.09234325960278511,
            51.51084755547345
          ],
          [
            -0.09207135066390038,
            51.510782428085804
          ],
          [
            -0.09179843589663506,
            51.510719396173954
          ],
          [
            -0.09152870625257492,
            51.51066583581269
          ],
          [
            -0.0912775844335556,
            51.510617304593325
          ],
          [
            -0.09098991751670837,
            51.51059299707413
          ],
          [
            -0.09072152897715569,
            51.5105064958334
          ],
          [
            -0.09045322425663471,
            51.510419910773635
          ],
          [
            -0.09018483571708202,
            51.510333409532905
          ],
          [
            -0.08991644717752934,
            51.51024682447314
          ],
          [
            -0.08964814245700836,
            51.51016032323241
          ],
          [
            -0.08937975391745567,
            51.51007373817265
          ],
          [
            -0.08917456492781639,
            51.509986566379666
          ],
          [
            -0.08898379281163216,
            51.509910793974996
          ],
          [
            -0.08887491188943386,
            51.50978196412325
          ],
          [
            -0.08871825411915779,
            51.509643495082855
          ],
          [
            -0.08850082755088806,
            51.50960275903344
          ],
          [
            -0.0882854126393795,
            51.50957333855331
          ],
          [
            -0.08801157586276531,
            51.50952698662877
          ],
          [
            -0.087771937251091,
            51.50948189198971
          ],
          [
            -0.08752869442105293,
            51.50944492779672
          ],
          [
            -0.08732015267014503,
            51.50940318591893
          ],
          [
            -0.08711161091923714,
            51.50933789089322
          ],
          [
            -0.08688747882843018,
            51.509316600859165
          ],
          [
            -0.08662940002977848,
            51.509352307766676
          ],
          [
            -0.08638381026685238,
            51.50940326973796
          ],
          [
            -0.08614693768322468,
            51.509374771267176
          ],
          [
            -0.0858954805880785,
            51.5093407407403
          ],
          [
            -0.08565609343349934,
            51.509312661364675
          ],
          [
            -0.08537840098142624,
            51.50926555506885
          ],
          [
            -0.0850846990942955,
            51.5092458575964
          ],
          [
            -0.08481396362185478,
            51.50923630222678
          ],
          [
            -0.08452780544757843,
            51.509272092953324
          ],
          [
            -0.0842401385307312,
            51.50927351787686
          ],
          [
            -0.08398231118917465,
            51.509259352460504
          ],
          [
            -0.08374007418751717,
            51.509236386045814
          ],
          [
            -0.08348912000656128,
            51.50921241380274
          ],
          [
            -0.08323129266500473,
            51.50918299332261
          ],
          [
            -0.08297128602862358,
            51.509156338870525
          ],
          [
            -0.08267414756119251,
            51.50914234109223
          ],
          [
            -0.08240710012614727,
            51.50912616401911
          ],
          [
            -0.08213250897824764,
            51.509130941703916
          ],
          [
            -0.08185934275388718,
            51.50914284400642
          ],
          [
            -0.08164267055690289,
            51.50916438549757
          ],
          [
            -0.08139188401401043,
            51.50918332859874
          ],
          [
            -0.0811369065195322,
            51.5092318598181
          ],
          [
            -0.08096029981970787,
            51.509326826781034
          ],
          [
            -0.0807453878223896,
            51.5093785431236
          ],
          [
            -0.08054070174694061,
            51.509432941675186
          ],
          [
            -0.08031397126615047,
            51.509474432095885
          ],
          [
            -0.08004742674529552,
            51.509515419602394
          ],
          [
            -0.07981399074196815,
            51.509563783183694
          ],
          [
            -0.07956923916935921,
            51.50960812345147
          ],
          [
            -0.07931417785584927,
            51.50961684063077
          ],
          [
            -0.07907629944384098,
            51.5096116438508
          ],
          [
            -0.078797098249197,
            51.50960401631892
          ],
          [
            -0.078558549284935,
            51.50958364829421
          ],
          [
            -0.07827943190932274,
            51.509554060176015
          ],
          [
            -0.07803342305123806,
            51.509513994678855
          ],
          [
            -0.07773410528898239,
            51.50949723087251
          ],
          [
            -0.07742305286228657,
            51.5095254778862
          ],
          [
            -0.07712205871939659,
            51.50954551063478
          ],
          [
            -0.07681871764361858,
            51.509576104581356
          ],
          [
            -0.07652484811842442,
            51.50961793027818
          ],
          [
            -0.07622594945132732,
            51.50966092944145
          ],
          [
            -0.07593987509608269,
            51.50971448980272
          ],
          [
            -0.07566528394818306,
            51.50978188030422
          ],
          [
            -0.07541642524302006,
            51.50986595079303
          ],
          [
            -0.07521425373852253,
            51.509937113150954
          ],
          [
            -0.07501954212784767,
            51.51002621278167
          ],
          [
            -0.07477990351617336,
            51.51007482782006
          ],
          [
            -0.074492571875453,
            51.5100606624037
          ],
          [
            -0.07427455857396126,
            51.510091591626406
          ],
          [
            -0.07405771873891354,
            51.51012696325779
          ],
          [
            -0.07376963272690773,
            51.510139452293515
          ],
          [
            -0.07348489947617054,
            51.51013827882707
          ],
          [
            -0.07319530472159386,
            51.51013199239969
          ],
          [
            -0.07292482070624828,
            51.510157976299524
          ],
          [
            -0.07267537526786327,
            51.510187312960625
          ],
          [
            -0.07243791595101357,
            51.51020550169051
          ],
          [
            -0.07218746468424797,
            51.51022729463875
          ],
          [
            -0.071940952911973,
            51.5102628339082
          ],
          [
            -0.07171774283051491,
            51.510304575785995
          ],
          [
            -0.07150995545089245,
            51.51037037372589
          ],
          [
            -0.07127232849597931,
            51.51042837649584
          ],
          [
            -0.0710375513881445,
            51.51047422550619
          ],
          [
            -0.070805624127388,
            51.51052728295326
          ],
          [
            -0.07056179456412792,
            51.51058302260935
          ],
          [
            -0.07031461223959923,
            51.51063649915159
          ],
          [
            -0.070059634745121,
            51.51068796403706
          ],
          [
            -0.06980524398386478,
            51.5107359085232
          ],
          [
            -0.06953937001526356,
            51.51076750829816
          ],
          [
            -0.06928145885467529,
            51.510800532996655
          ],
          [
            -0.06902849301695824,
            51.510827438905835
          ],
          [
            -0.06880813278257847,
            51.51086289435625
          ],
          [
            -0.0685763731598854,
            51.510901283472776
          ],
          [
            -0.0682920590043068,
            51.51092768646777
          ],
          [
            -0.06803649477660656,
            51.51093321852386
          ],
          [
            -0.06775503046810627,
            51.510926680639386
          ],
          [
            -0.06749636493623257,
            51.510939337313175
          ],
          [
            -0.06723971106112003,
            51.51096682995558
          ],
          [
            -0.06697467528283596,
            51.510996501892805
          ],
          [
            -0.06673612631857395,
            51.51101435534656
          ],
          [
            -0.06649606861174107,
            51.511027263477445
          ],
          [
            -0.06624679081141949,
            51.51104997843504
          ],
          [
            -0.0659925676882267,
            51.511063892394304
          ],
          [
            -0.06572870537638664,
            51.511084428057075
          ],
          [
            -0.06546040065586567,
            51.511103538796306
          ],
          [
            -0.06519343703985214,
            51.511117201298475
          ],
          [
            -0.06492949090898037,
            51.511136312037706
          ],
          [
            -0.06467007100582123,
            51.51114787906408
          ],
          [
            -0.06442615762352943,
            51.51115173473954
          ],
          [
            -0.06419925950467587,
            51.51115802116692
          ],
          [
            -0.0639685895293951,
            51.51116179302335
          ],
          [
            -0.063722413033247,
            51.51116564869881
          ],
          [
            -0.06346961483359337,
            51.51117327623069
          ],
          [
            -0.06320944055914879,
            51.511169420555234
          ],
          [
            -0.06294515915215015,
            51.511169420555234
          ],
          [
            -0.06268154829740524,
            51.51116053573787
          ],
          [
            -0.06243101321160793,
            51.511141592636704
          ],
          [
            -0.0621961522847414,
            51.51111703366041
          ],
          [
            -0.06193606182932854,
            51.511105885729194
          ],
          [
            -0.0616875384002924,
            51.51109054684639
          ],
          [
            -0.06145074963569641,
            51.511072777211666
          ],
          [
            -0.06121496669948101,
            51.51107160374522
          ],
          [
            -0.06094858981668949,
            51.51108551770449
          ],
          [
            -0.06072957068681717,
            51.511089289560914
          ],
          [
            -0.060500409454107285,
            51.511099599301815
          ],
          [
            -0.06026546470820904,
            51.51111108250916
          ],
          [
            -0.05998165346682072,
            51.5111452806741
          ],
          [
            -0.0597468763589859,
            51.511163134127855
          ],
          [
            -0.05949634127318859,
            51.511175790801644
          ],
          [
            -0.0592513382434845,
            51.51117704808712
          ],
          [
            -0.05901748314499855,
            51.511186016723514
          ],
          [
            -0.05875018425285816,
            51.51119615882635
          ],
          [
            -0.058460086584091187,
            51.5111936442554
          ],
          [
            -0.058165211230516434,
            51.51119372807443
          ],
          [
            -0.057890452444553375,
            51.51119615882635
          ],
          [
            -0.057628434151411057,
            51.51119104586542
          ],
          [
            -0.05737798288464546,
            51.511188531294465
          ],
          [
            -0.05714236758649349,
            51.511184675619006
          ],
          [
            -0.056913625448942184,
            51.511184675619006
          ],
          [
            -0.056632328778505325,
            51.51119230315089
          ],
          [
            -0.05641523748636246,
            51.51119104586542
          ],
          [
            -0.056184232234954834,
            51.511184675619006
          ],
          [
            -0.05595272406935692,
            51.51118090376258
          ],
          [
            -0.05571383982896805,
            51.51117838919163
          ],
          [
            -0.055471183732151985,
            51.51117704808712
          ],
          [
            -0.055230455473065376,
            51.51117327623069
          ],
          [
            -0.054987212643027306,
            51.5111643075943
          ],
          [
            -0.054739778861403465,
            51.51115668006241
          ],
          [
            -0.054491590708494186,
            51.51114905253053
          ],
          [
            -0.05425304174423218,
            51.51112080551684
          ],
          [
            -0.0540288258343935,
            51.51107110083103
          ],
          [
            -0.053803687915205956,
            51.51102206669748
          ],
          [
            -0.05359405651688576,
            51.5109465457499
          ],
          [
            -0.05338987335562706,
            51.51088485494256
          ],
          [
            -0.05314403213560581,
            51.510865576565266
          ],
          [
            -0.052893245592713356,
            51.510848980396986
          ],
          [
            -0.05265050567686558,
            51.51085794903338
          ],
          [
            -0.05240315571427345,
            51.51088644750416
          ],
          [
            -0.05215597338974476,
            51.51092282496393
          ],
          [
            -0.05191692151129246,
            51.51096045970917
          ],
          [
            -0.05166538059711456,
            51.51099784299731
          ],
          [
            -0.05143110640347004,
            51.511036567389965
          ],
          [
            -0.05119607783854008,
            51.511069759726524
          ],
          [
            -0.050967754796147346,
            51.51109674945474
          ],
          [
            -0.050738006830215454,
            51.511129941791296
          ],
          [
            -0.05050121806561947,
            51.5111571829766
          ],
          [
            -0.050262585282325745,
            51.51118685491383
          ],
          [
            -0.05003015510737896,
            51.51120546273887
          ],
          [
            -0.04978238604962826,
            51.511224238201976
          ],
          [
            -0.04952816292643547,
            51.51124779134989
          ],
          [
            -0.04928072914481163,
            51.51126656681299
          ],
          [
            -0.049033546820282936,
            51.51128601282835
          ],
          [
            -0.048787202686071396,
            51.51130814105272
          ],
          [
            -0.048532476648688316,
            51.511336136609316
          ],
          [
            -0.048520490527153015,
            51.51150109246373
          ],
          [
            -0.048536164686083794,
            51.511669317260385
          ],
          [
            -0.04854337312281132,
            51.51180937886238
          ],
          [
            -0.04857002757489681,
            51.5119740832597
          ],
          [
            -0.0486037228256464,
            51.51216644793749
          ],
          [
            -0.04865627735853195,
            51.51230977848172
          ],
          [
            -0.04869667813181877,
            51.51250692084432
          ],
          [
            -0.04872727207839489,
            51.51268788613379
          ],
          [
            -0.048773372545838356,
            51.51285451836884
          ],
          [
            -0.04878820851445198,
            51.513009164482355
          ],
          [
            -0.04876767285168171,
            51.513145957142115
          ],
          [
            -0.048720650374889374,
            51.51329515501857
          ],
          [
            -0.04882047884166241,
            51.513417698442936
          ],
          [
            -0.048608751967549324,
            51.513512916862965
          ],
          [
            -0.04843885079026222,
            51.513628754764795
          ],
          [
            -0.048422254621982574,
            51.51376814581454
          ],
          [
            -0.048409514129161835,
            51.51394416578114
          ],
          [
            -0.04844362847507,
            51.51412705890834
          ],
          [
            -0.04847346805036068,
            51.514319591224194
          ],
          [
            -0.048507414758205414,
            51.51449393481016
          ],
          [
            -0.04860447719693184,
            51.51462226174772
          ],
          [
            -0.04882718436419964,
            51.514663668349385
          ],
          [
            -0.04906187765300274,
            51.51465855538845
          ],
          [
            -0.049185846000909805,
            51.51466249488294
          ]
        ]
      },
      "properties": {
        "name": "2024-01-31 (Wed) 13:37",
        "source_file": "2024-01-31-133725-ELEMNT_ROAM_A974-110-0.fit",
        "date": "2024-01-31T13:37:26",
        "sport": "cycling",
        "dropbox_id": "id:JY-PzzIM9pcAAAAAAAAAow"
      }
    }
  ]
}